OBJECT_NAME,OBJECT_ID,EPOCH,MEAN_MOTION,ECCENTRICITY,INCLINATION,RA_OF_ASC_NODE,ARG_OF_PERICENTER,MEAN_ANOMALY,EPHEMERIS_TYPE,CLASSIFICATION_TYPE,NORAD_CAT_ID,ELEMENT_SET_NO,REV_AT_EPOCH,BSTAR,MEAN_MOTION_DOT,MEAN_MOTION_DDOT
SPACEMOBILE-004,2024-163E,2026-07-19T21:26:32.135136,15.20706461,.00055932,52.9709,158.5113,232.6464,127.4021,0,U,61049,999,10274,.5176363E-3,.1122E-3,0
CZ-8A R/B,2025-231K,2026-07-19T21:26:07.321920,14.30162965,.01165432,50.0033,260.1715,339.1583,20.4603,0,U,66004,999,3962,.24658273E-4,-.96E-6,0
SZ-21 MODULE,2025-246C,2026-07-19T22:32:34.099584,15.79140397,.0009191,41.4720,102.9079,250.3291,109.6563,0,U,66515,999,3891,.18664827E-3,.34255E-3,0
SPACEMOBILE-006,2025-309A,2026-07-20T03:31:10.435584,15.18670889,.00096225,52.9942,180.6504,232.4351,127.5769,0,U,67232,999,3160,.10184617E-3,.1818E-4,0
SPACEMOBILE-008,2026-139A,2026-07-20T04:10:16.862592,15.12806988,.0005247,52.9951,112.8041,68.3967,291.7583,0,U,69589,999,497,.36450013E-4,.346E-5,0
SPACEMOBILE-009,2026-139B,2026-07-20T04:13:36.679872,15.12700615,.00055971,52.9943,112.8125,65.1847,294.9726,0,U,69590,999,497,.34749511E-4,.314E-5,0
SPACEMOBILE-010,2026-139C,2026-07-20T04:18:52.081344,15.12541242,.00055133,52.9948,112.8383,57.1732,302.9789,0,U,69591,999,498,.76414121E-4,.1047E-4,0
