SPACEMOBILE-004         
1 61049U 24163E   26200.89342749  .00011220  00000+0  51764-3 0  9993
2 61049  52.9709 158.5113 0005593 232.6464 127.4021 15.20706461102740
CZ-8A R/B               
1 66004U 25231K   26200.89314030 -.00000096  00000+0  24658-4 0  9991
2 66004  50.0033 260.1715 0116543 339.1583  20.4603 14.30162965 39625
SZ-21 MODULE            
1 66515U 25246C   26200.93928356  .00034255  00000+0  18665-3 0  9994
2 66515  41.4720 102.9079 0009191 250.3291 109.6563 15.79140397 38910
SPACEMOBILE-006         
1 67232U 25309A   26201.14664856  .00001818  00000+0  10185-3 0  9995
2 67232  52.9942 180.6504 0009622 232.4351 127.5769 15.18670889 31606
SPACEMOBILE-008         
1 69589U 26139A   26201.17380628  .00000346  00000+0  36450-4 0  9998
2 69589  52.9951 112.8041 0005247  68.3967 291.7583 15.12806988  4977
SPACEMOBILE-009         
1 69590U 26139B   26201.17611898  .00000314  00000+0  34750-4 0  9992
2 69590  52.9943 112.8125 0005597  65.1847 294.9726 15.12700615  4977
SPACEMOBILE-010         
1 69591U 26139C   26201.17976946  .00001047  00000+0  76414-4 0  9998
2 69591  52.9948 112.8383 0005513  57.1732 302.9789 15.12541242  4980
